SCD 1                   
1 22490U 93009B   25333.80772624  .00000494  00000+0  84226-4 0  9992
2 22490  24.9710 358.5144 0041962 187.5502 345.7543 14.45984013732228
TECHSAT 1B (GO-32)      
1 25397U 98043D   25333.57082992  .00000107  00000+0  66233-4 0  9999
2 25397  98.9913 316.4797 0002292  78.9140 281.2295 14.24371124422914
SCD 2                   
1 25504U 98060A   25333.84560824  .00000433  00000+0  70036-4 0  9991
2 25504  24.9941 221.4043 0016825 176.1415 253.6600 14.45411881431456
DLR-TUBSAT              
1 25757U 99029B   25333.85135110  .00000135  00000+0  45006-4 0  9992
2 25757  98.6556 317.9681 0013227 233.7260 126.2713 14.52349715404315
TERRA                   
1 25994U 99068A   25333.79008487  .00000510  00000+0  11334-3 0  9990
2 25994  97.9768  25.9484 0003302 124.0808 300.6715 14.60928550380496
MAROC-TUBSAT            
1 27004U 01056D   25333.73036896 -.00000010  00000+0  41717-4 0  9998
2 27004  99.7911 141.9476 0019135 294.7663  83.8836 13.70251935198874
AQUA                    
1 27424U 02022A   25333.82572109  .00001144  00000+0  23914-3 0  9996
2 27424  98.4019 294.4966 0000660 100.9344 345.8487 14.61758990254140
SENTINEL-6B             
1 66514U 25264A   25333.01363223 -.00000028  00000+0  13678-3 0  9995
2 66514  66.0388 191.1198 0011510 269.2732  90.6967 12.85876830  1527
