{
  "type": "FeatureCollection",
  "features": [
    {
      "type": "Feature",
      "properties": {
        "OBJECT_NAME": "SENTINEL-6B",
        "OBJECT_ID": "2025-264A",
        "EPOCH": "2025-11-29T00:19:37.824672",
        "MEAN_MOTION": 12.8587683,
        "ECCENTRICITY": 0.00115103,
        "INCLINATION": 66.0388,
        "RA_OF_ASC_NODE": 191.1198,
        "ARG_OF_PERICENTER": 269.2732,
        "MEAN_ANOMALY": 90.6967,
        "EPHEMERIS_TYPE": 0,
        "CLASSIFICATION_TYPE": "U",
        "NORAD_CAT_ID": 66514,
        "ELEMENT_SET_NO": 999,
        "REV_AT_EPOCH": 152,
        "BSTAR": 0.00013678171,
        "MEAN_MOTION_DOT": -2.8e-07,
        "MEAN_MOTION_DDOT": 0,
        "norad_id": 66514,
        "name": "SENTINEL-6B",
        "group": "resource",
        "longitude_deg": NaN,
        "latitude_deg": NaN,
        "alt_km": NaN,
        "orbit_class": "HEO",
        "timestamp": "2025-11-30T04:58:49.597536+00:00"
      },
      "geometry": {
        "type": "Point",
        "coordinates": [
          NaN,
          NaN
        ]
      }
    },
    {
      "type": "Feature",
      "properties": {
        "OBJECT_NAME": "SCD 1",
        "OBJECT_ID": "1993-009B",
        "EPOCH": "2025-11-29T19:23:07.547136",
        "MEAN_MOTION": 14.45984013,
        "ECCENTRICITY": 0.0041962,
        "INCLINATION": 24.971,
        "RA_OF_ASC_NODE": 358.5144,
        "ARG_OF_PERICENTER": 187.5502,
        "MEAN_ANOMALY": 345.7543,
        "EPHEMERIS_TYPE": 0,
        "CLASSIFICATION_TYPE": "U",
        "NORAD_CAT_ID": 22490,
        "ELEMENT_SET_NO": 999,
        "REV_AT_EPOCH": 73222,
        "BSTAR": 8.4226e-05,
        "MEAN_MOTION_DOT": 4.94e-06,
        "MEAN_MOTION_DDOT": 0,
        "norad_id": 22490,
        "name": "SCD 1",
        "group": "resource",
        "longitude_deg": NaN,
        "latitude_deg": NaN,
        "alt_km": NaN,
        "orbit_class": "HEO",
        "timestamp": "2025-11-30T04:58:49.598504+00:00"
      },
      "geometry": {
        "type": "Point",
        "coordinates": [
          NaN,
          NaN
        ]
      }
    },
    {
      "type": "Feature",
      "properties": {
        "OBJECT_NAME": "TECHSAT 1B (GO-32)",
        "OBJECT_ID": "1998-043D",
        "EPOCH": "2025-11-29T13:41:59.705088",
        "MEAN_MOTION": 14.24371124,
        "ECCENTRICITY": 0.0002292,
        "INCLINATION": 98.9913,
        "RA_OF_ASC_NODE": 316.4797,
        "ARG_OF_PERICENTER": 78.914,
        "MEAN_ANOMALY": 281.2295,
        "EPHEMERIS_TYPE": 0,
        "CLASSIFICATION_TYPE": "U",
        "NORAD_CAT_ID": 25397,
        "ELEMENT_SET_NO": 999,
        "REV_AT_EPOCH": 42291,
        "BSTAR": 6.6233e-05,
        "MEAN_MOTION_DOT": 1.07e-06,
        "MEAN_MOTION_DDOT": 0,
        "norad_id": 25397,
        "name": "TECHSAT 1B (GO-32)",
        "group": "resource",
        "longitude_deg": NaN,
        "latitude_deg": NaN,
        "alt_km": NaN,
        "orbit_class": "HEO",
        "timestamp": "2025-11-30T04:58:49.598664+00:00"
      },
      "geometry": {
        "type": "Point",
        "coordinates": [
          NaN,
          NaN
        ]
      }
    },
    {
      "type": "Feature",
      "properties": {
        "OBJECT_NAME": "SCD 2",
        "OBJECT_ID": "1998-060A",
        "EPOCH": "2025-11-29T20:17:40.551936",
        "MEAN_MOTION": 14.45411881,
        "ECCENTRICITY": 0.0016825,
        "INCLINATION": 24.9941,
        "RA_OF_ASC_NODE": 221.4043,
        "ARG_OF_PERICENTER": 176.1415,
        "MEAN_ANOMALY": 253.66,
        "EPHEMERIS_TYPE": 0,
        "CLASSIFICATION_TYPE": "U",
        "NORAD_CAT_ID": 25504,
        "ELEMENT_SET_NO": 999,
        "REV_AT_EPOCH": 43145,
        "BSTAR": 7.0036e-05,
        "MEAN_MOTION_DOT": 4.33e-06,
        "MEAN_MOTION_DDOT": 0,
        "norad_id": 25504,
        "name": "SCD 2",
        "group": "resource",
        "longitude_deg": NaN,
        "latitude_deg": NaN,
        "alt_km": NaN,
        "orbit_class": "HEO",
        "timestamp": "2025-11-30T04:58:49.598694+00:00"
      },
      "geometry": {
        "type": "Point",
        "coordinates": [
          NaN,
          NaN
        ]
      }
    },
    {
      "type": "Feature",
      "properties": {
        "OBJECT_NAME": "DLR-TUBSAT",
        "OBJECT_ID": "1999-029B",
        "EPOCH": "2025-11-29T20:25:56.735040",
        "MEAN_MOTION": 14.52349715,
        "ECCENTRICITY": 0.0013227,
        "INCLINATION": 98.6556,
        "RA_OF_ASC_NODE": 317.9681,
        "ARG_OF_PERICENTER": 233.726,
        "MEAN_ANOMALY": 126.2713,
        "EPHEMERIS_TYPE": 0,
        "CLASSIFICATION_TYPE": "U",
        "NORAD_CAT_ID": 25757,
        "ELEMENT_SET_NO": 999,
        "REV_AT_EPOCH": 40431,
        "BSTAR": 4.5006e-05,
        "MEAN_MOTION_DOT": 1.35e-06,
        "MEAN_MOTION_DDOT": 0,
        "norad_id": 25757,
        "name": "DLR-TUBSAT",
        "group": "resource",
        "longitude_deg": NaN,
        "latitude_deg": NaN,
        "alt_km": NaN,
        "orbit_class": "HEO",
        "timestamp": "2025-11-30T04:58:49.598715+00:00"
      },
      "geometry": {
        "type": "Point",
        "coordinates": [
          NaN,
          NaN
        ]
      }
    },
    {
      "type": "Feature",
      "properties": {
        "OBJECT_NAME": "TERRA",
        "OBJECT_ID": "1999-068A",
        "EPOCH": "2025-11-29T18:57:43.332768",
        "MEAN_MOTION": 14.6092855,
        "ECCENTRICITY": 0.0003302,
        "INCLINATION": 97.9768,
        "RA_OF_ASC_NODE": 25.9484,
        "ARG_OF_PERICENTER": 124.0808,
        "MEAN_ANOMALY": 300.6715,
        "EPHEMERIS_TYPE": 0,
        "CLASSIFICATION_TYPE": "U",
        "NORAD_CAT_ID": 25994,
        "ELEMENT_SET_NO": 999,
        "REV_AT_EPOCH": 38049,
        "BSTAR": 0.00011334,
        "MEAN_MOTION_DOT": 5.1e-06,
        "MEAN_MOTION_DDOT": 0,
        "norad_id": 25994,
        "name": "TERRA",
        "group": "resource",
        "longitude_deg": NaN,
        "latitude_deg": NaN,
        "alt_km": NaN,
        "orbit_class": "HEO",
        "timestamp": "2025-11-30T04:58:49.598760+00:00"
      },
      "geometry": {
        "type": "Point",
        "coordinates": [
          NaN,
          NaN
        ]
      }
    },
    {
      "type": "Feature",
      "properties": {
        "OBJECT_NAME": "MAROC-TUBSAT",
        "OBJECT_ID": "2001-056D",
        "EPOCH": "2025-11-29T17:31:43.878144",
        "MEAN_MOTION": 13.70251935,
        "ECCENTRICITY": 0.0019135,
        "INCLINATION": 99.7911,
        "RA_OF_ASC_NODE": 141.9476,
        "ARG_OF_PERICENTER": 294.7663,
        "MEAN_ANOMALY": 83.8836,
        "EPHEMERIS_TYPE": 0,
        "CLASSIFICATION_TYPE": "U",
        "NORAD_CAT_ID": 27004,
        "ELEMENT_SET_NO": 999,
        "REV_AT_EPOCH": 19887,
        "BSTAR": 4.1717e-05,
        "MEAN_MOTION_DOT": -1e-07,
        "MEAN_MOTION_DDOT": 0,
        "norad_id": 27004,
        "name": "MAROC-TUBSAT",
        "group": "resource",
        "longitude_deg": NaN,
        "latitude_deg": NaN,
        "alt_km": NaN,
        "orbit_class": "HEO",
        "timestamp": "2025-11-30T04:58:49.598917+00:00"
      },
      "geometry": {
        "type": "Point",
        "coordinates": [
          NaN,
          NaN
        ]
      }
    },
    {
      "type": "Feature",
      "properties": {
        "OBJECT_NAME": "AQUA",
        "OBJECT_ID": "2002-022A",
        "EPOCH": "2025-11-29T19:49:02.302176",
        "MEAN_MOTION": 14.6175899,
        "ECCENTRICITY": 6.6e-05,
        "INCLINATION": 98.4019,
        "RA_OF_ASC_NODE": 294.4966,
        "ARG_OF_PERICENTER": 100.9344,
        "MEAN_ANOMALY": 345.8487,
        "EPHEMERIS_TYPE": 0,
        "CLASSIFICATION_TYPE": "U",
        "NORAD_CAT_ID": 27424,
        "ELEMENT_SET_NO": 999,
        "REV_AT_EPOCH": 25414,
        "BSTAR": 0.00023914,
        "MEAN_MOTION_DOT": 1.144e-05,
        "MEAN_MOTION_DDOT": 0,
        "norad_id": 27424,
        "name": "AQUA",
        "group": "resource",
        "longitude_deg": NaN,
        "latitude_deg": NaN,
        "alt_km": NaN,
        "orbit_class": "HEO",
        "timestamp": "2025-11-30T04:58:49.598950+00:00"
      },
      "geometry": {
        "type": "Point",
        "coordinates": [
          NaN,
          NaN
        ]
      }
    }
  ]
}